IRIDIUM 155             
1 43573U 18061E   19045.58137001  .00000070  00000-0  17967-4 0  9993
2 43573  86.3944  96.5704 0003021  98.3725 261.7814 14.34218522 29292
IRIDIUM 154             
1 43574U 18061F   19045.56234157  .00000060  00000-0  14292-4 0  9999
2 43574  86.3948  96.5853 0001894  97.9924 262.1487 14.34218358 29337
IRIDIUM 163             
1 43575U 18061G   19045.26423148  .00000048  00000-0  10233-4 0  9994
2 43575  86.3946  96.7062 0002166  72.3763 287.7669 14.34219110 29265
IRIDIUM 156             
1 43576U 18061H   19045.51794245  .00000049  00000-0  10592-4 0  9991
2 43576  86.3947  96.6044 0002540  85.7560 274.3926 14.34216812 29281
IRIDIUM 164             
1 43577U 18061J   19045.49891260  .00000061  00000-0  14852-4 0  9991
2 43577  86.3949  96.6122 0001987  91.9588 268.1835 14.34216061 29336
IRIDIUM 159             
1 43578U 18061K   19045.53697287  .00000059  00000-0  13889-4 0  9996
2 43578  86.3945  96.5892 0002051  95.0120 265.1310 14.34218135 29302
IRIDIUM 180             
1 43922U 19002A   19045.46669987  .00000065  00000-0  16189-4 0  9996
2 43922  86.3963  33.4103 0000877  64.3590 295.7697 14.34216949  4945
IRIDIUM 176             
1 43923U 19002B   19045.53201095  .00000085  00000-0  96268-5 0  9996
2 43923  86.6096  33.3976 0002599  84.5639 275.5875 14.72250282  4993
IRIDIUM 168             
1 43924U 19002C   19045.53011980  .00000040  00000-0  73112-5 0  9993
2 43924  86.3966  33.3852 0001781  89.7343 270.4057 14.34217497  4895
IRIDIUM 173             
1 43925U 19002D   19045.44766960  .00000064  00000-0  15820-4 0  9996
2 43925  86.3963  33.4172 0001956  87.9052 272.2368 14.34217408  4875
IRIDIUM 169             
1 43926U 19002E   19045.54755770  .00000073  00000-0  17819-4 0  9995
2 43926  87.4027  34.4214 0004702 130.4013 229.7597 14.38747858  4973
IRIDIUM 172             
1 43927U 19002F   19045.51109375  .00000079  00000-0  21146-4 0  9991
2 43927  86.3962  33.3901 0001775  86.6249 273.5150 14.34216473  4883
IRIDIUM 175             
1 43928U 19002G   19045.52598886  .00000108  00000-0  13205-4 0  9992
2 43928  86.6081  33.3883 0002893 113.8372 246.3149 14.72254688  4989
IRIDIUM 171             
1 43929U 19002H   19045.49206716  .00000074  00000-0  19496-4 0  9997
2 43929  86.3972  33.4067 0001845  90.6312 269.5095 14.34217915  4878
IRIDIUM 170             
1 43930U 19002J   19045.53820040  .00000118  00000-0  14807-4 0  9996
2 43930  86.6097  33.4025 0002850  94.8138 265.3405 14.72248754  5006
IRIDIUM 167             
1 43931U 19002K   19045.48571502  .00000049  00000-0  10443-4 0  9992
2 43931  86.3963  33.3999 0000941  77.4100 282.7201 14.34217144  4878
